GLOBALSTAR M084 [+]     
1 38040U 11080A   24004.89387361 -.00000089  00000+0  82996-4 0  9995
2 38040  51.9982 219.8377 0000924  65.2678  37.2795 12.62269876555824
GLOBALSTAR M080 [+]     
1 38041U 11080B   24005.03951274 -.00000082  00000+0  12230-3 0  9999
2 38041  52.0034 220.8159 0000784  58.1050 106.2702 12.62268146556100
GLOBALSTAR M082 [+]     
1 38042U 11080C   24004.89292500 -.00000084  00000+0  10874-3 0  9997
2 38042  52.0050 176.6491 0001703  99.8595  59.0832 12.62265064556659
GLOBALSTAR M092 [+]     
1 38043U 11080D   24004.92895578 -.00000097  00000+0  36043-4 0  9997
2 38043  52.0082 266.8934 0000983  43.5076  37.2076 12.62240414555118
GLOBALSTAR M090 [+]     
1 38044U 11080E   24004.67519890 -.00000096  00000+0  45918-4 0  9990
2 38044  51.9860 171.8013 0001336 102.5212  27.2950 12.62265208556743
GLOBALSTAR M086 [+]     
1 38045U 11080F   24004.86407161 -.00000088  00000+0  88572-4 0  9993
2 38045  51.9872 171.7373 0000896 153.0531 354.5771 12.62266249556710
GLOBALSTAR M097 [+]     
1 39072U 13005A   24004.54105077 -.00000105  00000+0 -83810-5 0  9991
2 39072  52.0053  86.7282 0000928 135.8372 224.2569 12.62273530503929
GLOBALSTAR M093 [+]     
1 39073U 13005B   24004.51442154 -.00000105  00000+0 -59800-5 0  9991
2 39073  51.9825  80.9586 0001113 151.5365 208.5562 12.62259421503877
